[{"OBJECT_NAME":"STARLINK-35579","OBJECT_ID":"2025-268F","EPOCH":"2026-03-08T03:29:54.515904","MEAN_MOTION":15.27606511,"ECCENTRICITY":0.00021729,"INCLINATION":43.0021,"RA_OF_ASC_NODE":355.7805,"ARG_OF_PERICENTER":277.407,"MEAN_ANOMALY":82.6535,"EPHEMERIS_TYPE":0,"CLASSIFICATION_TYPE":"U","NORAD_CAT_ID":66562,"ELEMENT_SET_NO":999,"REV_AT_EPOCH":1772,"BSTAR":0.0017783536,"MEAN_MOTION_DOT":0.00049041,"MEAN_MOTION_DDOT":0},{"OBJECT_NAME":"FENGYUN 1C DEB","OBJECT_ID":"1999-025CUZ","EPOCH":"2026-03-07T03:33:19.659744","MEAN_MOTION":15.49361115,"ECCENTRICITY":0.0121693,"INCLINATION":97.0067,"RA_OF_ASC_NODE":319.8074,"ARG_OF_PERICENTER":141.5541,"MEAN_ANOMALY":219.4462,"EPHEMERIS_TYPE":0,"CLASSIFICATION_TYPE":"U","NORAD_CAT_ID":32203,"ELEMENT_SET_NO":999,"REV_AT_EPOCH":76401,"BSTAR":0.00044112138,"MEAN_MOTION_DOT":0.00032745,"MEAN_MOTION_DDOT":0}]
